IRIDIUM 112             
1 41925U 17003J   24078.51623030  .00000002  00000+0 -63375-5 0  9994
2 41925  86.3914  71.2714 0001900  90.2688 269.8726 14.34217285375674
IRIDIUM 111             
1 41926U 17003K   24078.08493366  .00000116  00000+0  34414-4 0  9990
2 41926  86.3917  71.5042 0002134  95.7906 264.3533 14.34217243375634
IRIDIUM 113             
1 42803U 17039A   24077.71605427  .00000108  00000+0  31402-4 0  9991
2 42803  86.3953 305.4526 0001919  92.2493 267.8923 14.34218106353443
IRIDIUM 123             
1 42804U 17039B   24078.24591220  .00000054  00000+0  12385-4 0  9995
2 42804  86.4009 336.7291 0001969  88.9897 271.1525 14.34218269352285
IRIDIUM 120             
1 42805U 17039C   24078.12832305  .00000181  00000+0  57625-4 0  9992
2 42805  86.3941 305.1688 0002110  84.5485 275.5952 14.34216965353491
IRIDIUM 115             
1 42806U 17039D   24077.82544985  .00000414  00000+0  11722-3 0  9999
2 42806  86.4479 305.3072 0001991  91.2947 268.8482 14.43283163355794
IRIDIUM 118             
1 42807U 17039E   24078.27762609  .00000014  00000+0 -20842-5 0  9997
2 42807  86.4006 336.7173 0002007  84.1097 276.0327 14.34216840352296
IRIDIUM 117             
1 42808U 17039F   24077.73850233  .00000163  00000+0  50978-4 0  9995
2 42808  86.4009 336.9079 0002129  90.3118 269.8322 14.34216593352239
